{"type":"FeatureCollection","source":"PMC electoral wards 2025 (via OpenCity); see data/boundaries/README.md","features":[{"type":"Feature","properties":{"prabhag":3,"name":"Prabhag 3"},"geometry":{"type":"Polygon","coordinates":[[[73.95695,18.62006],[73.95729,18.61971],[73.95829,18.61972],[73.95938,18.61976],[73.95998,18.62001],[73.96075,18.6203],[73.96317,18.62036],[73.96406,18.61941],[73.96561,18.61873],[73.96556,18.61853],[73.96542,18.61827],[73.96469,18.61789],[73.96437,18.61764],[73.9643,18.6174],[73.96429,18.61708],[73.96579,18.6103],[73.96592,18.60959],[73.966,18.60813],[73.96578,18.6072],[73.968,18.60386],[73.97206,18.60316],[73.97328,18.60319],[73.97505,18.60305],[73.9765,18.60283],[73.98114,18.60299],[73.98229,18.60363],[73.98295,18.60363],[73.98342,18.60376],[73.98383,18.60395],[73.98409,18.60409],[73.98592,18.60554],[73.9903,18.6063],[73.99327,18.60715],[73.99558,18.60815],[73.99819,18.60972],[73.99899,18.61042],[74.00038,18.61125],[74.00227,18.613],[74.00434,18.61387],[74.00539,18.61238],[74.0055,18.61135],[74.00771,18.60847],[74.00868,18.60783],[74.00907,18.606],[74.01007,18.60421],[74.01082,18.60335],[74.01121,18.60331],[74.0116,18.60298],[74.00996,18.60128],[74.00979,18.6011],[74.00955,18.60088],[74.00858,18.60001],[74.00752,18.59955],[74.00277,18.59684],[74.00169,18.59579],[74.00105,18.59493],[73.99978,18.59323],[73.99978,18.59323],[73.99839,18.59116],[73.998,18.59036],[73.9957,18.58748],[73.99362,18.58543],[73.9891,18.5827],[73.98654,18.58134],[73.98587,18.58113],[73.98575,18.58431],[73.98548,18.58436],[73.98433,18.58421],[73.98356,18.5838],[73.98301,18.5851],[73.98206,18.5855],[73.98109,18.58534],[73.98061,18.58519],[73.9801,18.58474],[73.97998,18.58457],[73.97951,18.58424],[73.97941,18.58315],[73.97849,18.58052],[73.97755,18.58039],[73.97497,18.57931],[73.97364,18.57907],[73.9733,18.57894],[73.97282,18.57862],[73.9727,18.57854],[73.97248,18.5784],[73.97246,18.57839],[73.97229,18.5783],[73.97201,18.57816],[73.97091,18.57772],[73.97061,18.5776],[73.96927,18.577],[73.96747,18.57681],[73.96655,18.57665],[73.96469,18.57618],[73.96216,18.57535],[73.9601,18.57458],[73.95725,18.57332],[73.9548,18.57177],[73.95409,18.56989],[73.94861,18.56741],[73.9469,18.56615],[73.94474,18.56509],[73.9438,18.5645],[73.94361,18.56448],[73.94346,18.56455],[73.94342,18.56468],[73.94346,18.5648],[73.94465,18.56612],[73.94493,18.56631],[73.94522,18.56647],[73.94791,18.56745],[73.94658,18.56963],[73.94511,18.57139],[73.94356,18.57369],[73.94671,18.57375],[73.94671,18.57625],[73.94129,18.57644],[73.9434,18.57567],[73.94339,18.57417],[73.94072,18.57377],[73.93773,18.57345],[73.93735,18.57554],[73.93733,18.57562],[73.93452,18.57562],[73.93454,18.57521],[73.93603,18.57324],[73.93459,18.57264],[73.93412,18.57214],[73.93384,18.57241],[73.93369,18.57257],[73.93358,18.57293],[73.93219,18.57454],[73.93139,18.57465],[73.93089,18.57387],[73.93086,18.57301],[73.93048,18.57266],[73.93134,18.57182],[73.93109,18.57158],[73.93016,18.57237],[73.92867,18.57101],[73.92811,18.57132],[73.92731,18.56973],[73.92742,18.56822],[73.93019,18.5682],[73.9302,18.56793],[73.93057,18.56798],[73.93085,18.56816],[73.93124,18.56813],[73.93138,18.56798],[73.93256,18.56807],[73.93416,18.56835],[73.93415,18.56741],[73.93426,18.56548],[73.93441,18.56328],[73.93004,18.56289],[73.92795,18.56265],[73.92798,18.56082],[73.92815,18.55732],[73.92646,18.55761],[73.92607,18.55769],[73.92445,18.55791],[73.92431,18.55775],[73.92262,18.55838],[73.922,18.5579],[73.92138,18.55781],[73.92136,18.55709],[73.92135,18.55672],[73.92065,18.55457],[73.91911,18.55467],[73.91821,18.55517],[73.91838,18.55631],[73.91868,18.55788],[73.91877,18.55942],[73.91862,18.56094],[73.91818,18.56083],[73.91253,18.55892],[73.90922,18.55746],[73.90797,18.55669],[73.90682,18.55569],[73.90612,18.55522],[73.90575,18.55506],[73.90559,18.55593],[73.90636,18.55627],[73.90633,18.55943],[73.90685,18.56466],[73.90655,18.56654],[73.90656,18.56666],[73.90612,18.56671],[73.90593,18.56801],[73.90669,18.56801],[73.907,18.57044],[73.90546,18.57052],[73.90501,18.57026],[73.90504,18.56961],[73.90495,18.56943],[73.90134,18.56947],[73.90089,18.57001],[73.90083,18.57021],[73.90099,18.57041],[73.90086,18.57092],[73.90076,18.57135],[73.90065,18.57153],[73.9005,18.57158],[73.90033,18.57159],[73.89977,18.57244],[73.89982,18.57347],[73.89919,18.57541],[73.89748,18.57504],[73.89568,18.57475],[73.89605,18.57901],[73.89625,18.58323],[73.89714,18.58307],[73.89793,18.5836],[73.89824,18.58411],[73.89828,18.58454],[73.89832,18.58489],[73.89934,18.58678],[73.89993,18.58737],[73.90014,18.5882],[73.90017,18.58865],[73.90021,18.58874],[73.90035,18.58876],[73.90046,18.58875],[73.90161,18.58862],[73.90447,18.58828],[73.90449,18.58745],[73.90508,18.58526],[73.90648,18.58551],[73.91045,18.58612],[73.91183,18.5867],[73.91208,18.58681],[73.91231,18.58699],[73.91237,18.58716],[73.91459,18.58991],[73.91739,18.59204],[73.91865,18.59266],[73.92109,18.59308],[73.9213,18.59281],[73.92218,18.5934],[73.92261,18.59354],[73.92363,18.59449],[73.9247,18.5959],[73.92463,18.59646],[73.92467,18.59718],[73.92492,18.59778],[73.92583,18.59969],[73.92619,18.60018],[73.92651,18.60008],[73.92685,18.59963],[73.92692,18.59849],[73.92725,18.59848],[73.92742,18.59994],[73.9276,18.60274],[73.92825,18.60267],[73.92881,18.60262],[73.92989,18.6028],[73.93079,18.60316],[73.93158,18.60383],[73.9323,18.60485],[73.93277,18.60554],[73.93356,18.6067],[73.93496,18.60798],[73.93533,18.60868],[73.9361,18.60926],[73.93692,18.60978],[73.93675,18.61081],[73.93715,18.61121],[73.93785,18.61148],[73.93884,18.61166],[73.93967,18.6121],[73.9409,18.61222],[73.94167,18.61284],[73.94233,18.61312],[73.94263,18.61334],[73.94274,18.6141],[73.94287,18.61461],[73.94326,18.6153],[73.94429,18.61677],[73.94497,18.61737],[73.94551,18.61768],[73.94587,18.61815],[73.94638,18.61832],[73.94665,18.61879],[73.9471,18.61914],[73.94743,18.61945],[73.94765,18.62],[73.94768,18.6206],[73.95087,18.62014],[73.95166,18.62004],[73.9523,18.61996],[73.95287,18.62013],[73.95403,18.62066],[73.95473,18.62056],[73.95635,18.62024],[73.95695,18.62006]]]}},{"type":"Feature","properties":{"prabhag":4,"name":"Prabhag 4"},"geometry":{"type":"Polygon","coordinates":[[[74.01573,18.59042],[74.00798,18.57848],[74.00517,18.57625],[74.00088,18.56357],[73.99928,18.56367],[73.99778,18.564],[73.99614,18.56416],[73.99593,18.56381],[73.99373,18.56379],[73.99247,18.56439],[73.99173,18.56486],[73.99113,18.56534],[73.98974,18.56704],[73.98516,18.56824],[73.9852,18.56885],[73.98253,18.56898],[73.98235,18.56806],[73.98098,18.56806],[73.97939,18.56481],[73.97854,18.56239],[73.97759,18.56086],[73.97628,18.55992],[73.97553,18.55869],[73.97542,18.5582],[73.97534,18.55578],[73.97535,18.55308],[73.9756,18.55284],[73.97555,18.55276],[73.9752,18.55219],[73.9751,18.5505],[73.97432,18.55035],[73.97244,18.54619],[73.97061,18.543],[73.97042,18.54248],[73.96955,18.54278],[73.96657,18.54357],[73.96515,18.54391],[73.96373,18.5443],[73.9622,18.54497],[73.96102,18.54556],[73.96072,18.54569],[73.96072,18.54606],[73.95961,18.54652],[73.95795,18.54664],[73.95712,18.54656],[73.95568,18.54622],[73.95445,18.54565],[73.95355,18.54547],[73.95203,18.54557],[73.94949,18.54542],[73.9482,18.54544],[73.94695,18.54546],[73.94567,18.54519],[73.94482,18.54469],[73.94382,18.54394],[73.94323,18.54324],[73.94296,18.54291],[73.94194,18.54084],[73.94073,18.53787],[73.9401,18.53677],[73.93934,18.53602],[73.93867,18.53568],[73.93749,18.53554],[73.93367,18.5358],[73.9317,18.53595],[73.93156,18.536],[73.93191,18.53698],[73.93197,18.53791],[73.93195,18.53882],[73.93177,18.53973],[73.93129,18.54236],[73.93071,18.54475],[73.92898,18.55013],[73.92863,18.5526],[73.9282,18.55629],[73.92798,18.56082],[73.92795,18.56265],[73.93004,18.56289],[73.93441,18.56328],[73.93426,18.56548],[73.93415,18.56741],[73.93416,18.56835],[73.93256,18.56807],[73.93138,18.56798],[73.93124,18.56813],[73.93085,18.56816],[73.93057,18.56798],[73.9302,18.56793],[73.93019,18.5682],[73.92742,18.56822],[73.92731,18.56973],[73.92811,18.57132],[73.92867,18.57101],[73.93016,18.57237],[73.93109,18.57158],[73.93134,18.57182],[73.93048,18.57266],[73.93086,18.57301],[73.93089,18.57387],[73.93139,18.57465],[73.93219,18.57454],[73.93358,18.57293],[73.93369,18.57257],[73.93384,18.57241],[73.93412,18.57214],[73.93459,18.57264],[73.93603,18.57324],[73.93454,18.57521],[73.93452,18.57562],[73.93733,18.57562],[73.93735,18.57554],[73.93773,18.57345],[73.94072,18.57377],[73.94339,18.57417],[73.9434,18.57567],[73.94129,18.57644],[73.94671,18.57625],[73.94671,18.57375],[73.94356,18.57369],[73.94511,18.57139],[73.94658,18.56963],[73.94791,18.56745],[73.94522,18.56647],[73.94493,18.56631],[73.94465,18.56612],[73.94346,18.5648],[73.94342,18.56468],[73.94346,18.56455],[73.94361,18.56448],[73.9438,18.5645],[73.94474,18.56509],[73.9469,18.56615],[73.94861,18.56741],[73.95409,18.56989],[73.9548,18.57177],[73.95725,18.57332],[73.9601,18.57458],[73.96216,18.57535],[73.96469,18.57618],[73.96655,18.57665],[73.96747,18.57681],[73.96927,18.577],[73.97061,18.5776],[73.97091,18.57772],[73.97201,18.57816],[73.97229,18.5783],[73.97246,18.57839],[73.9727,18.57854],[73.97282,18.57862],[73.9733,18.57894],[73.97364,18.57907],[73.97497,18.57931],[73.97755,18.58039],[73.97849,18.58052],[73.97941,18.58315],[73.97951,18.58424],[73.97998,18.58457],[73.9801,18.58474],[73.98061,18.58519],[73.98109,18.58534],[73.98206,18.5855],[73.98301,18.5851],[73.98356,18.5838],[73.98433,18.58421],[73.98548,18.58436],[73.98575,18.58431],[73.98587,18.58113],[73.98654,18.58134],[73.9891,18.5827],[73.99362,18.58543],[73.9957,18.58748],[73.998,18.59036],[73.99839,18.59116],[73.99978,18.59323],[74.00105,18.59493],[74.00169,18.59579],[74.00277,18.59684],[74.00539,18.59833],[74.00752,18.59955],[74.00858,18.60001],[74.00955,18.60088],[74.00996,18.60128],[74.0116,18.60298],[74.01181,18.60281],[74.0132,18.60184],[74.01326,18.60164],[74.01333,18.60137],[74.01354,18.60115],[74.01496,18.60064],[74.01541,18.59773],[74.01577,18.59628],[74.01588,18.59594],[74.01605,18.59573],[74.01635,18.59552],[74.0179,18.59509],[74.01829,18.59477],[74.01831,18.59451],[74.01813,18.59435],[74.01669,18.59403],[74.01677,18.59333],[74.01717,18.59232],[74.01673,18.59135],[74.01573,18.59042]]]}},{"type":"Feature","properties":{"prabhag":5,"name":"Prabhag 5"},"geometry":{"type":"Polygon","coordinates":[[[73.91911,18.55467],[73.92065,18.55457],[73.92135,18.55672],[73.92136,18.55709],[73.92138,18.55781],[73.922,18.5579],[73.92262,18.55838],[73.92431,18.55775],[73.92445,18.55791],[73.92607,18.55769],[73.92646,18.55761],[73.92815,18.55732],[73.9282,18.55629],[73.92863,18.5526],[73.92898,18.55013],[73.93071,18.54475],[73.93129,18.54236],[73.93177,18.53973],[73.93195,18.53882],[73.93197,18.53791],[73.93191,18.53698],[73.93156,18.536],[73.92564,18.53795],[73.92243,18.53881],[73.91768,18.53902],[73.9167,18.53927],[73.91603,18.53961],[73.91482,18.53958],[73.91166,18.53989],[73.91015,18.54051],[73.90559,18.54114],[73.90392,18.54098],[73.90084,18.54115],[73.89788,18.54188],[73.8946,18.54273],[73.89259,18.54341],[73.89094,18.54366],[73.88874,18.54365],[73.88862,18.54559],[73.88865,18.54578],[73.88956,18.54603],[73.89048,18.54667],[73.89148,18.54755],[73.89261,18.54885],[73.89423,18.55066],[73.89518,18.55143],[73.89613,18.55204],[73.8969,18.55239],[73.89677,18.55341],[73.89678,18.55573],[73.89693,18.5565],[73.89694,18.55654],[73.89573,18.55665],[73.89466,18.55775],[73.89477,18.5581],[73.89536,18.55798],[73.89663,18.55783],[73.89707,18.55782],[73.89716,18.55784],[73.89724,18.55793],[73.89732,18.55905],[73.89937,18.55875],[73.89931,18.55817],[73.89941,18.55665],[73.90071,18.55703],[73.9008,18.55703],[73.90093,18.55697],[73.90095,18.55688],[73.90107,18.55371],[73.90272,18.55422],[73.90575,18.55506],[73.90671,18.5556],[73.90797,18.55669],[73.90922,18.55746],[73.91137,18.55856],[73.91318,18.55914],[73.91595,18.56013],[73.91862,18.56094],[73.91877,18.55942],[73.91868,18.55788],[73.91838,18.55631],[73.91821,18.55517],[73.91911,18.55467]]]}},{"type":"Feature","properties":{"prabhag":14,"name":"Prabhag 14"},"geometry":{"type":"Polygon","coordinates":[[[73.90084,18.54115],[73.90392,18.54098],[73.90559,18.54114],[73.91015,18.54051],[73.91166,18.53989],[73.91482,18.53958],[73.91603,18.53961],[73.9167,18.53927],[73.91768,18.53902],[73.92243,18.53881],[73.92564,18.53795],[73.9317,18.53595],[73.93367,18.5358],[73.93322,18.53408],[73.93295,18.53284],[73.93266,18.53228],[73.93216,18.53163],[73.93234,18.52929],[73.93213,18.52625],[73.93208,18.52355],[73.93205,18.52147],[73.93236,18.52053],[73.93255,18.5195],[73.9329,18.51595],[73.9325,18.51451],[73.92888,18.51458],[73.92885,18.51312],[73.92879,18.51174],[73.92878,18.51161],[73.92617,18.51175],[73.92605,18.50917],[73.92591,18.50892],[73.92517,18.50896],[73.9235,18.50895],[73.92227,18.50908],[73.92203,18.50914],[73.9219,18.50927],[73.92145,18.51046],[73.92062,18.51007],[73.92025,18.51094],[73.91944,18.51259],[73.91867,18.51408],[73.91828,18.51409],[73.91766,18.51456],[73.91689,18.51497],[73.9161,18.51529],[73.91516,18.5154],[73.91516,18.5159],[73.91436,18.51597],[73.91332,18.51575],[73.91083,18.5148],[73.91011,18.5143],[73.9101,18.51501],[73.90956,18.51481],[73.90909,18.51479],[73.90871,18.51495],[73.90836,18.51521],[73.90808,18.51539],[73.90774,18.5155],[73.90744,18.51557],[73.90722,18.51559],[73.9071,18.51559],[73.90695,18.51551],[73.90676,18.51546],[73.90625,18.51517],[73.90094,18.52303],[73.89862,18.5262],[73.89831,18.5264],[73.89799,18.52662],[73.89707,18.52723],[73.89695,18.52652],[73.89408,18.528],[73.88704,18.53123],[73.8868,18.52971],[73.88544,18.53002],[73.88569,18.53149],[73.88543,18.53712],[73.88526,18.54137],[73.88519,18.54244],[73.88505,18.54327],[73.88874,18.54365],[73.89094,18.54366],[73.89259,18.54341],[73.8946,18.54273],[73.89788,18.54188],[73.90084,18.54115]]]}},{"type":"Feature","properties":{"prabhag":15,"name":"Prabhag 15"},"geometry":{"type":"Polygon","coordinates":[[[73.95713,18.49479],[73.9579,18.49786],[73.95841,18.50111],[73.95864,18.50397],[73.95704,18.50414],[73.95636,18.50413],[73.95556,18.50423],[73.95425,18.50441],[73.9542,18.5042],[73.95405,18.50418],[73.95121,18.50413],[73.94788,18.50377],[73.94562,18.50363],[73.9439,18.50349],[73.94389,18.5037],[73.94389,18.50543],[73.94395,18.50628],[73.94411,18.5065],[73.94437,18.50672],[73.94475,18.50701],[73.94498,18.50724],[73.94508,18.50756],[73.94506,18.50819],[73.9447,18.50928],[73.94488,18.50998],[73.9449,18.51004],[73.94338,18.51004],[73.93922,18.51011],[73.93865,18.51002],[73.93789,18.50999],[73.93715,18.50976],[73.93557,18.50992],[73.93225,18.51028],[73.9326,18.51109],[73.93274,18.5117],[73.93276,18.5119],[73.93238,18.51193],[73.93243,18.51381],[73.9325,18.51451],[73.9329,18.51595],[73.93255,18.5195],[73.93236,18.52053],[73.93205,18.52147],[73.93208,18.52355],[73.93213,18.52625],[73.93234,18.52929],[73.93216,18.53163],[73.93266,18.53228],[73.93295,18.53284],[73.93322,18.53408],[73.93367,18.5358],[73.93749,18.53554],[73.93867,18.53568],[73.93934,18.53602],[73.9401,18.53677],[73.94073,18.53787],[73.94194,18.54084],[73.94296,18.54291],[73.94382,18.54394],[73.94482,18.54469],[73.94567,18.54519],[73.94695,18.54546],[73.94949,18.54542],[73.95203,18.54557],[73.95355,18.54547],[73.95445,18.54565],[73.95568,18.54622],[73.95712,18.54656],[73.95795,18.54664],[73.95961,18.54652],[73.96072,18.54606],[73.96072,18.54569],[73.96102,18.54556],[73.9622,18.54497],[73.96373,18.5443],[73.96577,18.54377],[73.9671,18.54343],[73.96955,18.54278],[73.97042,18.54248],[73.97093,18.54194],[73.97173,18.54128],[73.97241,18.54081],[73.97261,18.54099],[73.97465,18.53837],[73.97601,18.53398],[73.97827,18.53204],[73.97973,18.53018],[73.98496,18.52675],[73.98946,18.52384],[73.99114,18.52256],[73.99165,18.52162],[73.99193,18.5206],[73.99193,18.51852],[73.99185,18.51739],[73.99157,18.5164],[73.99121,18.51336],[73.99113,18.51172],[73.99117,18.5108],[73.99142,18.51017],[73.99186,18.50969],[73.99276,18.50886],[73.99701,18.50597],[73.99784,18.50536],[73.99728,18.50413],[73.99703,18.50368],[73.99669,18.5033],[73.99619,18.503],[73.99581,18.50265],[73.99517,18.50178],[73.99316,18.49953],[73.99286,18.49926],[73.99253,18.49901],[73.99224,18.4987],[73.99201,18.49836],[73.99191,18.49794],[73.99153,18.4965],[73.99193,18.4945],[73.99193,18.49411],[73.99174,18.49384],[73.99143,18.49372],[73.98963,18.49297],[73.9891,18.49187],[73.98945,18.49139],[73.98957,18.49068],[73.98967,18.48944],[73.98937,18.48882],[73.98798,18.48817],[73.98777,18.48804],[73.98758,18.4876],[73.98736,18.48667],[73.98721,18.4864],[73.98706,18.48631],[73.98674,18.48635],[73.98607,18.48652],[73.98582,18.48651],[73.98556,18.48632],[73.98538,18.48566],[73.98525,18.48528],[73.98508,18.48503],[73.98487,18.48497],[73.98464,18.48503],[73.9844,18.4853],[73.98397,18.48587],[73.98378,18.48594],[73.9836,18.48595],[73.98339,18.48587],[73.98328,18.48565],[73.98316,18.48497],[73.98258,18.48447],[73.98159,18.48335],[73.98172,18.48288],[73.98164,18.48224],[73.98135,18.48195],[73.98066,18.4817],[73.98035,18.4816],[73.9802,18.48136],[73.98008,18.48016],[73.97992,18.47992],[73.97919,18.47951],[73.97799,18.48065],[73.97714,18.48119],[73.97663,18.48141],[73.97641,18.48143],[73.97587,18.48128],[73.97423,18.48075],[73.97383,18.48067],[73.97353,18.48068],[73.97327,18.48077],[73.973,18.48093],[73.97189,18.48182],[73.97141,18.48196],[73.97096,18.48198],[73.97,18.48184],[73.9675,18.48134],[73.96682,18.48125],[73.96631,18.48129],[73.96595,18.48143],[73.9656,18.48167],[73.96239,18.4855],[73.96225,18.48585],[73.96224,18.48619],[73.96239,18.48658],[73.96314,18.48824],[73.96339,18.48859],[73.96374,18.48886],[73.96426,18.48916],[73.96466,18.48948],[73.96592,18.4909],[73.96602,18.49114],[73.96602,18.49145],[73.96583,18.49174],[73.96538,18.49206],[73.96472,18.49253],[73.9613,18.49258],[73.95906,18.49291],[73.95881,18.49303],[73.95683,18.49319],[73.95713,18.49479]]]}}]}
